NORAD_CAT_ID,OBJECT_NAME,OBJECT_TYPE,EPOCH,MEAN_MOTION,ECCENTRICITY,INCLINATION,RA_OF_ASC_NODE,ARG_OF_PERICENTER,MEAN_ANOMALY,BSTAR,MEAN_MOTION_DOT,MEAN_MOTION_DDOT,TLE_LINE0,TLE_LINE1,TLE_LINE2,SEMIMAJOR_AXIS,PERIOD,APOGEE,PERIGEE,DECAYED
50845.0,STARLINK-3230,PAYLOAD,2022-05-13 22:00:00,15.08825252,0.0001492,53.2178,324.9795,59.9503,39.7173,0.00079105,0.00012319,0.0,0 STARLINK-3230,1 50845U 22001AU  22133.91667824  .00012319  00000-0  79105-3 0  9992,2 50845  53.2178 324.9795 0001492  59.9503  39.7173 15.08825252 20781,6917.925,95.438,540.823,538.758,0.0
50845.0,STARLINK-3230,PAYLOAD,2022-05-14 06:00:00,15.08833855,0.000155,53.2174,323.4815,71.3935,39.9066,-0.00024847,-4.24e-05,0.0,0 STARLINK-3230,1 50845U 22001AU  22134.25001157 -.00004240  00000-0 -24847-3 0  9990,2 50845  53.2174 323.4815 0001550  71.3935  39.9066 15.08833855 20833,6917.899,95.438,540.836,538.692,0.0
50845.0,STARLINK-3230,PAYLOAD,2022-05-14 14:00:01,15.08850785,0.0001483,53.2175,321.9849,74.2167,48.6712,-0.002513,-0.00040072,0.0,0 STARLINK-3230,1 50845U 22001AU  22134.58334491 -.00040072  00000-0 -25130-2 0  9994,2 50845  53.2175 321.9849 0001483  74.2167  48.6712 15.08850785  1305,6917.847,95.437,540.738,538.687,0.0
50845.0,STARLINK-3230,PAYLOAD,2022-05-14 22:00:00,15.08801905,0.0001498,53.2172,320.4902,63.7739,70.7096,0.0030961,0.0004927999999999,0.0,0 STARLINK-3230,1 50845U 22001AU  22134.91667824  .00049280  00000-0  30961-2 0  9996,2 50845  53.2172 320.4902 0001498  63.7739  70.7096 15.08801905  1301,6917.996999999999,95.44,540.898,538.826,0.0
50845.0,STARLINK-3230,PAYLOAD,2022-05-15 14:00:01,15.08842622,0.0001543,53.2171,317.4956,73.5814,84.1176,-0.0020292,-0.0003244,0.0,0 STARLINK-3230,1 50845U 22001AU  22135.58335648 -.00032440  00000-0 -20292-2 0  9994,2 50845  53.2171 317.4956 0001543  73.5814  84.1176 15.08842622 21030,6917.871999999999,95.437,540.805,538.67,0.0
50845.0,STARLINK-3230,PAYLOAD,2022-05-15 22:00:00,15.0880532,0.0001624,53.2169,316.0008,64.5396,104.6944,0.0036595,0.0005837999999999,0.0,0 STARLINK-3230,1 50845U 22001AU  22135.91667824  .00058380  00000-0  36595-2 0  9997,2 50845  53.2169 316.0008 0001624  64.5396 104.6944 15.08805320  1308,6917.986,95.44,540.975,538.7280000000002,0.0
50845.0,STARLINK-3230,PAYLOAD,2022-05-16 06:00:02,15.08839504,0.0001539,53.2168,314.5025,69.8884,110.9891,0.00077799,0.00012115,0.0,0 STARLINK-3230,1 50845U 22001AU  22136.25002315  .00012115  00000-0  77799-3 0  9991,2 50845  53.2168 314.5025 0001539  69.8884 110.9891 15.08839504 21139,6917.882,95.438,540.812,538.682,0.0
50845.0,STARLINK-3230,PAYLOAD,2022-05-16 14:00:01,15.08865387,0.0001665999999999,53.217,313.0063,72.7312,119.6734,-0.00311,-0.00049479,0.0,0 STARLINK-3230,1 50845U 22001AU  22136.58334491 -.00049479  00000-0 -31100-2 0  9990,2 50845  53.2170 313.0063 0001666  72.7312 119.6734 15.08865387  1305,6917.803000000001,95.436,540.82,538.515,0.0
50845.0,STARLINK-3230,PAYLOAD,2022-05-16 22:00:00,15.08818451,0.0001716,53.2171,311.5113,63.6757,140.3446,0.0012958,0.00020383,0.0,0 STARLINK-3230,1 50845U 22001AU  22136.91667824  .00020383  00000-0  12958-2 0  9997,2 50845  53.2171 311.5113 0001716  63.6757 140.3446 15.08818451 21249,6917.946,95.439,540.998,538.624,0.0
50845.0,STARLINK-3230,PAYLOAD,2022-05-17 14:00:01,15.08865363,0.0001589,53.2175,308.517,69.3416,157.8974,-0.0027218,-0.00043375,0.0,0 STARLINK-3230,1 50845U 22001AU  22137.58335648 -.00043375  00000-0 -27218-2 0  9990,2 50845  53.2175 308.5170 0001589  69.3416 157.8974 15.08865363  1303,6917.803000000001,95.436,540.7669999999998,538.569,0.0
50845.0,STARLINK-3230,PAYLOAD,2022-05-17 20:00:01,15.08830334,0.0001613,53.2176,307.3959,60.7064,85.1889,0.00041305,6.29e-05,0.0,0 STARLINK-3230,1 50845U 22001AU  22137.83334491  .00006290  00000-0  41305-3 0  9990,2 50845  53.2176 307.3959 0001613  60.7064  85.1889 15.08830334 21375,6917.91,95.438,540.891,538.659,0.0
50845.0,STARLINK-3230,PAYLOAD,2022-05-17 22:00:01,15.08819392,0.0001575999999999,53.2176,307.0219,58.3821,180.4769,0.0017995,0.00028451,0.0,0 STARLINK-3230,1 50845U 22001AU  22137.91668981  .00028451  00000-0  17995-2 0  9993,2 50845  53.2176 307.0219 0001576  58.3821 180.4769 15.08819392  1301,6917.943,95.439,540.899,538.7180000000002,0.0
50845.0,STARLINK-3230,PAYLOAD,2022-05-18 14:00:01,15.0885819,0.0001418,53.2181,304.0279,63.1112,198.8466,-0.0015394,-0.00024716,0.0,0 STARLINK-3230,1 50845U 22001AU  22138.58334491 -.00024716  00000-0 -15394-2 0  9996,2 50845  53.2181 304.0279 0001418  63.1112 198.8466 15.08858190  1308,6917.825,95.436,540.6709999999998,538.7090000000002,0.0
50845.0,STARLINK-3230,PAYLOAD,2022-05-18 22:00:00,15.08827537,0.0001506,53.218,302.5329,53.7396,219.831,-0.00024356,-4.161e-05,0.0,0 STARLINK-3230,1 50845U 22001AU  22138.91667824 -.00004161  00000-0 -24356-3 0  9993,2 50845  53.2180 302.5329 0001506  53.7396 219.8310 15.08827537 21544,6917.918000000002,95.438,540.825,538.742,0.0
50845.0,STARLINK-3230,PAYLOAD,2022-05-19 14:00:01,15.08839031,0.0001479,53.2185,299.5391,61.9311,234.844,-0.00046711,-7.714e-05,0.0,0 STARLINK-3230,1 50845U 22001AU  22139.58335648 -.00007714  00000-0 -46711-3 0  9999,2 50845  53.2185 299.5391 0001479  61.9311 234.8440 15.08839031  1305,6917.8830000000025,95.438,540.7719999999998,538.725,0.0
50845.0,STARLINK-3230,PAYLOAD,2022-05-19 22:00:00,15.088346599999998,0.00016,53.2181,298.0440000000001,54.4792,253.8341,0.0007943,0.00012374,0.0,0 STARLINK-3230,1 50845U 22001AU  22139.91667824  .00012374  00000-0  79430-3 0  9990,2 50845  53.2181 298.0440 0001600  54.4792 253.8341 15.08834660  1300,6917.897,95.438,540.869,538.655,0.0
50845.0,STARLINK-3230,PAYLOAD,2022-05-20 06:00:00,15.08819033,0.0001476,53.2183,296.546,62.5161,257.4047,0.0035509,0.00056646,0.0,0 STARLINK-3230,1 50845U 22001AU  22140.25001157  .00056646  00000-0  35509-2 0  9998,2 50845  53.2183 296.5460 0001476  62.5161 257.4047 15.08819033 21748,6917.944,95.439,540.831,538.788,0.0
50845.0,STARLINK-3230,PAYLOAD,2022-05-20 14:00:01,15.08873139,0.0001496999999999,53.2184,295.0505,60.8942,270.6089,-0.0034781999999999,-0.00055269,0.0,0 STARLINK-3230,1 50845U 22001AU  22140.58334491 -.00055269  00000-0 -34782-2 0  9998,2 50845  53.2184 295.0505 0001497  60.8942 270.6089 15.08873139  1304,6917.779,95.435,540.68,538.609,0.0
50845.0,STARLINK-3230,PAYLOAD,2022-05-20 22:00:00,15.08828357,0.0001555,53.2179,293.5552,53.0682,290.0475,0.00045415,6.945e-05,0.0,0 STARLINK-3230,1 50845U 22001AU  22140.91667824  .00006945  00000-0  45415-3 0  9995,2 50845  53.2179 293.5552 0001555  53.0682 290.0475 15.08828357 21841,6917.916,95.438,540.857,538.705,0.0
50845.0,STARLINK-3230,PAYLOAD,2022-05-21 06:00:00,15.08800638,0.0001374,53.2178,292.0572,61.3173,293.3965,0.0022474,0.00035622,0.0,0 STARLINK-3230,1 50845U 22001AU  22141.25001157  .00035622  00000-0  22474-2 0  9997,2 50845  53.2178 292.0572 0001374  61.3173 293.3965 15.08800638  1303,6918.001,95.44,540.816,538.915,0.0
50845.0,STARLINK-3230,PAYLOAD,2022-05-21 14:00:01,15.08835594,0.0001443,53.2179,290.562,58.6627,307.6670000000001,-0.00066503,-0.00010855,0.0,0 STARLINK-3230,1 50845U 22001AU  22141.58335648 -.00010855  00000-0 -66503-3 0  9993,2 50845  53.2179 290.5620 0001443  58.6627 307.6670 15.08835594  1302,6917.894,95.438,540.757,538.761,0.0
50845.0,STARLINK-3230,PAYLOAD,2022-05-21 22:00:00,15.08836613,0.0001646,53.2172,289.0664,55.1202,322.7856,0.00026772,3.975e-05,0.0,0 STARLINK-3230,1 50845U 22001AU  22141.91667824  .00003975  00000-0  26772-3 0  9991,2 50845  53.2172 289.0664 0001646  55.1202 322.7856 15.08836613  1309,6917.891,95.438,540.894,538.617,0.0
50845.0,STARLINK-3230,PAYLOAD,2022-05-22 06:00:00,15.08820317,0.0001493,53.2171,287.5684,62.8541,326.6444,0.0011745999999999,0.00018445,0.0,0 STARLINK-3230,1 50845U 22001AU  22142.25001157  .00018445  00000-0  11746-2 0  9992,2 50845  53.2171 287.5684 0001493  62.8541 326.6444 15.08820317 22048,6917.941,95.439,540.8380000000002,538.773,0.0
50845.0,STARLINK-3230,PAYLOAD,2022-05-22 14:00:01,15.08847186,0.000161,53.2171,286.0734,60.8261,340.2401,-0.0037154,-0.00058947,0.0,0 STARLINK-3230,1 50845U 22001AU  22142.58334491 -.00058947  00000-0 -37154-2 0  9992,2 50845  53.2171 286.0734 0001610  60.8261 340.2401 15.08847186  1300,6917.858,95.437,540.837,538.61,0.0
50845.0,STARLINK-3230,PAYLOAD,2022-05-22 22:00:01,15.08807998,0.0001602,53.2165,284.5775,52.9897,359.7322,0.0027089,0.0004305,0.0,0 STARLINK-3230,1 50845U 22001AU  22142.91668981  .00043050  00000-0  27089-2 0  9996,2 50845  53.2165 284.5775 0001602  52.9897 359.7322 15.08807998 22148,6917.978,95.44,540.951,538.735,0.0
50845.0,STARLINK-3230,PAYLOAD,2022-05-23 14:00:01,15.08867624,0.0001567,53.2165,281.5844,57.7644,18.0426,-0.0026148,-0.00041693,0.0,0 STARLINK-3230,1 50845U 22001AU  22143.58334491 -.00041693  00000-0 -26148-2 0  9994,2 50845  53.2165 281.5844 0001567  57.7644  18.0426 15.08867624  1302,6917.795999999999,95.436,540.745,538.577,0.0
50845.0,STARLINK-3230,PAYLOAD,2022-05-23 16:00:00,15.08861498,0.0001602,53.2165,281.2107,55.6948,113.0171,-0.0024842,-0.0003963,0.0,0 STARLINK-3230,1 50845U 22001AU  22143.66667824 -.00039630  00000-0 -24842-2 0  9999,2 50845  53.2165 281.2107 0001602  55.6948 113.0171 15.08861498 22258,6917.815,95.436,540.788,538.571,0.0
50845.0,STARLINK-3230,PAYLOAD,2022-05-23 22:00:01,15.08838063,0.0001579,53.2162,280.0883,50.0905,37.3971,0.0014157,0.00022313,0.0,0 STARLINK-3230,1 50845U 22001AU  22143.91668981  .00022313  00000-0  14157-2 0  9998,2 50845  53.2162 280.0883 0001579  50.0905  37.3971 15.08838063  1309,6917.886,95.438,540.844,538.659,0.0
50845.0,STARLINK-3230,PAYLOAD,2022-05-24 06:00:02,15.08819927,0.0001474,53.2163,278.5901,58.5186,40.5757,0.0019944,0.00031578,0.0,0 STARLINK-3230,1 50845U 22001AU  22144.25002315  .00031578  00000-0  19944-2 0  9991,2 50845  53.2163 278.5901 0001474  58.5186  40.5757 15.08819927 22344,6917.941999999999,95.439,540.826,538.7869999999998,0.0
